the_geom,OBJECTID,OwnerName,BusinessName,Address,Suite,City,State,Zip,PhoneNumber,BusinessType
POINT (-90.10238926156 29.916910432707),381075,"ROUSE'S ENTERPRISES, LLC",ROUSES MARKET #26(UPTOWN),4500 TCHOUPITOULAS ST,,NEW ORLEANS,LA,70115,985-447-5998,1106 - GROCERY (EXC CONVENIENCE) STORES
POINT (-90.120664034947 29.957054464413),381070,CLAIBORNE FRESH MARKET LLC,ROBERT FRESH MARKET #124,8115 S CLAIBORNE AVE,,NEW ORLEANS,LA,70118,,1106 - GROCERY (EXC CONVENIENCE) STORES
POINT (-90.078348211519 29.951267900741),381032,"NOLA SUNDRY, LLC",NOLA SUNDRY,1450 POYDRAS ST,STE 120,NEW ORLEANS,LA,70112,504-667-6932,1101 - CONVENIENCE STORES
POINT (-90.054762599341 29.9630263051),380943,"TWO HOT CHICKS AND TWO GUYS, LLC",GRANDE KREWE,511 MARIGNY ST,,NEW ORLEANS,LA,70117,,"1110 - BEER, WINE & LIQUOR STORES"
POINT (-90.107440412916 29.924373023075),381169,ZARA'S LIL GIANT SUPERMA,ZARA'S LIL GIANT SUPERMARKET,4838 PRYTANIA ST,,NEW ORLEANS,LA,70115,504-895-0581,1101 - CONVENIENCE STORES
POINT (-90.020639725897 29.925316567452),381007,"ZEGAR, INC",MIKE'S DISCOUNT 2,3600 MACARTHUR BLVD,B-2,NEW ORLEANS,LA,70114,504-368-1350,1101 - CONVENIENCE STORES
POINT (-90.020827187447 29.962089767741),380848,ST. CLAUDE DISCOUNT LLC,BROTHER'S ST CLAUDE,5104 ST CLAUDE AVE,A,NEW ORLEANS,LA,70117,504-220-3777,1101 - CONVENIENCE STORES
POINT (-89.818452798836 30.070799135257),380835,BIG BOY DISTRIBUTORS LLC,BIG BOY DISTRIBUTORS,4441 SAN GIORGIO ST,,NEW ORLEANS,LA,70129,504-628-5689,"0138 - GROCERY & RELATED PRDCTS WHLSRS, OTH"
POINT (-90.094156019576 29.925506605722),381053,"PRYTANIA MART,LLC",PRYTANIA MART,3636 PRYTANIA ST,,NEW ORLEANS,LA,70115,,1101 - CONVENIENCE STORES
POINT (-89.963349587694 30.048268165909),380917,SARA GROCERY INC,EASTOVER MARKET,7050 BULLARD AVE,,NEW ORLEANS,LA,70128,504-244-0741,1106 - GROCERY (EXC CONVENIENCE) STORES
POINT (-90.100217704488 29.940832037626),380890,SOUTH CLAIBORNE OPERATIONS,CLAIBORNE #165,4101 S CLAIBORNE AVE,,NEW ORLEANS,LA,70125,,1101 - CONVENIENCE STORES
POINT (-90.041379393805 29.953988448223),381068,A. B. & R. FINE FOODS LL,RIVER FINE FOODS STORE,1403 PATTERSON ST,,NEW ORLEANS,LA,70114,504-362-4795,1101 - CONVENIENCE STORES
POINT (-90.089377801288 29.9629592514),380842,HOANG AN INC,BROAD & BANKS SEAFOOD,342 S BROAD ST,,NEW ORLEANS,LA,70119,,1106 - GROCERY (EXC CONVENIENCE) STORES
POINT (-90.047486051616 29.97722427571),380865,RACHEL SEAFOOD INC,CAJUN SEAFOOD 2,1901 ALMONASTER AVE,,NEW ORLEANS,LA,70117,504-945-5447,1101 - CONVENIENCE STORES
POINT (-90.050421905135 29.948514295701),381040,"OPELOUSAS POINT SUPERMARKET, INC",OPELOUSAS POINT SUPERMARKET,601 OPELOUSAS AVE,,NEW ORLEANS,LA,70114,,1101 - CONVENIENCE STORES
POINT (-90.119367393437 29.968523422168),381037,ADAN FOOD INC,OLIVE FOOD MART,8841 OLIVE ST,,NEW ORLEANS,LA,70118,,1106 - GROCERY (EXC CONVENIENCE) STORES
POINT (-90.107691684146 29.976411409416),381038,OLYMPIA FOOD STORE INC,OLYMPIA FOOD STORE INC,301 S OLYMPIA ST,,NEW ORLEANS,LA,70119,504-231-4883,1106 - GROCERY (EXC CONVENIENCE) STORES
POINT (-90.036329126921 29.965571407892),381029,CUONG THAO INC,NIKKI FOOD STORE,3900 ST CLAUDE AVE,,NEW ORLEANS,LA,70117,504-945-6655,1106 - GROCERY (EXC CONVENIENCE) STORES
POINT (-90.09943017857 29.978305643036),381168,WINN DIXIE MONTGOMERY LLC,WINN DIXIE STORE #1472,401 N CARROLLTON AVE,,NEW ORLEANS,LA,70119,,1106 - GROCERY (EXC CONVENIENCE) STORES
POINT (-89.969569805861 30.057042239228),380923,"RANCH, INC",FAMILY RANCH MARKET,11950 HAYNE BLVD,,NEW ORLEANS,LA,70128,504-243-1944,1106 - GROCERY (EXC CONVENIENCE) STORES
POINT (-90.088473973179 29.96933963949),381034,NORMA'S SWEET BAKERY #2 LLC,NORMA'S SWEET BAKERY,2925 BIENVILLE AVE,,NEW ORLEANS,LA,70119,504-309-5401,1106 - GROCERY (EXC CONVENIENCE) STORES
POINT (-90.094371638917 29.965858020913),381045,"SAINT GEORGE,LLC",PARAISO GROCERY,3128 BANKS ST,,NEW ORLEANS,LA,70119,,1106 - GROCERY (EXC CONVENIENCE) STORES
POINT (-90.051787888571 29.979962442149),381094,SAVERS 2 INC,SAVERS 2,2440 N MIRO ST,,NEW ORLEANS,LA,70117,,1106 - GROCERY (EXC CONVENIENCE) STORES
POINT (-90.10707115022 29.920594604826),381061,RAINBOW MAGAZINE LLC,RAINBOW GROCERY,4837 MAGAZINE ST,,NEW ORLEANS,LA,70115,,1106 - GROCERY (EXC CONVENIENCE) STORES
POINT (-90.090535669739 29.937588147639),381106,QUAN VAN NGUYEN,SOUL'S SEAFOOD MARKET,2732 LA SALLE ST,,NEW ORLEANS,LA,70113,504-899-4420,1104 - FISH & SEAFOOD MARKETS
POINT (-90.084734764806 29.967206350295),381162,WHOLE FOOD COMPANY INC,WHOLE FOODS MARKET,300 N BROAD ST,,NEW ORLEANS,LA,70119,,1106 - GROCERY (EXC CONVENIENCE) STORES
POINT (-90.121798454337 29.964868360332),380956,"ABJ & R GROCERY,LLC",J & P SUPERETTE,2941 EAGLE ST,,NEW ORLEANS,LA,70118,,1106 - GROCERY (EXC CONVENIENCE) STORES
POINT (-90.065096769494 29.982223378928),380845,COUSIN'S FOODMART INC.,BROOKS GROCERY,2434 ALLEN ST,,NEW ORLEANS,LA,70119,,1106 - GROCERY (EXC CONVENIENCE) STORES
POINT (-90.10238926156 29.916910432707),381074,"ROUSE'S ENTERPRISES, LLC",ROUSES MARKET #26,4500 TCHOUPITOULAS ST,,NEW ORLEANS,LA,70115,504-896-7910,1105 - FULL SVC RESTAURANTS (TABLE SERVICE)
POINT (-89.947117755696 30.027698665013),380970,KING OF SOFT SHELL CRAB LLC,KING OF SOFT SHELL CRAB,4949 BULLARD AVE,,NEW ORLEANS,LA,70127,,0135 - FISH & SEAFOOD WHLSRS
POINT (-90.068659882115 29.96989254177),380999,TSY CORPORATION,MAN CHU FOOD STORE & CHINESE  FOOD,1413 N CLAIBORNE AVE,,NEW ORLEANS,LA,70116,504-947-5507,1101 - CONVENIENCE STORES
POINT (-90.133750108902 29.950718202179),380964,"AMEERA AB,LLC",JSK DISCOUNT,8539 OAK ST,STE #A,NEW ORLEANS,LA,70118,,1106 - GROCERY (EXC CONVENIENCE) STORES
POINT (-90.052079865595 30.021643536452),380932,MALAK INC,FRANKLIN DISCOUNT,6100 FRANKLIN AVE,,NEW ORLEANS,LA,70122,,1106 - GROCERY (EXC CONVENIENCE) STORES
POINT (-90.075835490737 30.006149227438),381092,"MORAN FOODS, LLC",SAVE A LOT - 463-4743,4726 PARIS AVE,,NEW ORLEANS,LA,70122,504-282-2966,1106 - GROCERY (EXC CONVENIENCE) STORES
POINT (-90.015453644772 29.961378293959),380881,CHICKEN MART II LLC,CHICKEN MART II,5601 ST CLAUDE AVE,,NEW ORLEANS,LA,70117,,1103 - MEAT MARKETS
POINT (-90.076582892185 29.985725798201),380921,FAIR ZONE FOOD STORE 2 LLC,FAIR ZONE FOOD STORE 2,1825 GENTILLY BLVD,,NEW ORLEANS,LA,70119,504-461-6175,1101 - CONVENIENCE STORES
POINT (-90.092867040416 29.930129203632),380827,BACK ON THE AVENUE LLC,BACK ON THE AVENUE,3401 BARONNE ST,,NEW ORLEANS,LA,70115,,1106 - GROCERY (EXC CONVENIENCE) STORES
POINT (-90.122885731538 29.922299081601),380888,CIRCLE K STORES INC,CIRCLE K #8276,6050 MAGAZINE ST,,NEW ORLEANS,LA,70118,504-895-0871,1101 - CONVENIENCE STORES
POINT (-90.053270056191 29.99675665197),380838,"BIG EASY POBOY & SEAFOOD, LLC",BIG EASY POBOY & SEAFOOD,3700 CLEMATIS ST,,NEW ORLEANS,LA,70122,,1106 - GROCERY (EXC CONVENIENCE) STORES
POINT (-90.100263764319 29.950856066317),380863,"TIEN & TUYET, INC",CAJUN SEAFOOD,2730 S BROAD ST,,NEW ORLEANS,LA,70125,504-822-6185,1104 - FISH & SEAFOOD MARKETS
POINT (-90.087905076467 29.923505269288),380839,BIG FISHERMAN SEAFOOD INC,BIG FISHERMAN SEAFOOD,3301 MAGAZINE ST,,NEW ORLEANS,LA,70115,504-897-9907,1104 - FISH & SEAFOOD MARKETS
POINT (-90.031237954123 29.964478206152),381141,CHAU TWO CORPORATION,TRUE CAJUN SEAFOOD,4400 ST CLAUDE AVE,,NEW ORLEANS,LA,70117,504-948-8998,1106 - GROCERY (EXC CONVENIENCE) STORES
POINT (-90.072243269939 29.944546989035),381153,VHKR & ASSOCTIATES INC,VHKR & ASSOCIATES INC D/B/A   PRICE BUSTERS,867 ST CHARLES AVE,,NEW ORLEANS,LA,70130,504-529-3759,1101 - CONVENIENCE STORES
POINT (-90.048156460637 29.973748870562),381057,"AMEER, LLC",QUICKIES DISCOUNT,1535 FRANKLIN AVE,,NEW ORLEANS,LA,70117,504-259-3655,1101 - CONVENIENCE STORES
POINT (-89.967193907869 30.018323343739),381126,BIEN V NGUYEN,TAN VIET WAREHOUSE,10100 CHEF MENTEUR HWY,,NEW ORLEANS,LA,70127,504-241-9903,1106 - GROCERY (EXC CONVENIENCE) STORES
POINT (-89.972309694458 30.018733937286),381167,WINN DIXIE MONTGOMERY LLC,WINN DIXIE #1439,9701 CHEF MENTEUR HWY,,NEW ORLEANS,LA,70127,504-244-0701,1106 - GROCERY (EXC CONVENIENCE) STORES
POINT (-89.927411706044 30.031851359283),380876,"TRAN FAMILY VENTURES, LLC",CHEF CHEVRON,13301 CHEF MENTEUR HWY,,NEW ORLEANS,LA,70129,504-254-8984,1101 - CONVENIENCE STORES
POINT (-90.104009745868 29.940545167696),380901,"LOUISIANA CVS PHARMACY, L.L.C.",CVS/ PHARMACY # 167,4401 S CLAIBORNE AVE,,NEW ORLEANS,LA,70125,401-765-1500,1101 - CONVENIENCE STORES
POINT (-90.114908992626 30.023858873569),381096,"CRESCENT CITY MARINE GROUP, INC.",SCHUBERT MARINE,126 S ROADWAY ST,,NEW ORLEANS,LA,70124,5042828136,1101 - CONVENIENCE STORES
POINT (-90.076989294557 29.951922709288),381064,LINA GROCERY INC,READ SUPERMARKET,7045 READ BLVD,A,NEW ORLEANS,LA,70127,504-244-0741,1101 - CONVENIENCE STORES
POINT (-90.07826949396 29.998946403644),380946,HANDY DISCOUNT INC,HANDY DISCOUNT,4101 JUMONVILLE ST,,NEW ORLEANS,LA,70122,504-282-9667,1106 - GROCERY (EXC CONVENIENCE) STORES
POINT (-89.742569856456 30.146836195096),381050,POMES CHRIS             POMES BERTRAND,POMES SEAFOOD,26064 CHEF MENTEUR HWY,,NEW ORLEANS,LA,70129,504-662-5026,0135 - FISH & SEAFOOD WHLSRS
POINT (-90.066932898 29.944944834434),381020,"NESBIT'S JULIA ST MARKET,LLC",NESBITS JULIA ST MARKET,333 JULIA ST,,NEW ORLEANS,LA,70130,,1101 - CONVENIENCE STORES
POINT (-89.912274866341 30.036518000962),381144,MICHAEL L TRAN,TUYET HUONG,14389 CHEF MENTEUR HWY,B,NEW ORLEANS,LA,70129,504-254-3178,1103 - MEAT MARKETS
POINT (-90.035956879636 30.00513891837),380936,FUEL ZONE LLC,FUEL ZONE,4500 CHEF MENTEUR HWY,,NEW ORLEANS,LA,70126,,1101 - CONVENIENCE STORES
POINT (-90.077115563802 29.92953730034),381116,AU LAIT CRU LLC,STEIN'S MARKET AND DELI,2207 MAGAZINE ST,,NEW ORLEANS,LA,70130,504-527-0771,"1169 - MISC STORE RTLERS (EX TOBAC), ALL OTH"
POINT (-90.049458441916 29.968660468099),380948,"YOUSEF ODEH, LLC",HANK'S SEAFOOD & SUPERMARKET,2634 ST CLAUDE AVE,,NEW ORLEANS,LA,70117,504-247-3731,1101 - CONVENIENCE STORES
POINT (-90.119653822911 29.955581919067),381121,I ZENITH INC,SUPER SERVE,8023 S CLAIBORNE AVE,,NEW ORLEANS,LA,70125,504-862-9079,1101 - CONVENIENCE STORES
POINT (-90.089232387222 29.974850454542),380963,JOHN & MARY INC,JOHN & MARY FOOD STORE,3238 ORLEANS AVE,,NEW ORLEANS,LA,70119,504-482-1144,1101 - CONVENIENCE STORES
POINT (-89.984500416407 29.923482251374),381124,SAMZI  G INC,T & T FOOD MART,6419 GENERAL MEYER AVE,,NEW ORLEANS,LA,70131,504-393-0201,1106 - GROCERY (EXC CONVENIENCE) STORES
POINT (-90.039356823812 30.005216761007),381158,"WAL-MART LOUISIANA, LLC",WALMART #3167(GENTILLY),4301 CHEF MENTEUR HWY,,NEW ORLEANS,LA,70164,479-204-6234,"1119 - GENERAL MERCHANDISE STORES, ALL OTH"
POINT (-89.960450915049 30.020878530563),381011,MINI MARKET LA CONSENTIDA LLC,MINI MARKET LA CONSENTIDA LLC,10715 CHEF MENTEUR HWY,STE A,NEW ORLEANS,LA,70127,,1101 - CONVENIENCE STORES
POINT (-89.929135616567 30.032236173165),380980,"LATINOS MARKET, LLC",LATINOS MARKET,13235 CHEF MENTEUR HWY,STE D2,NEW ORLEANS,LA,70129,,1106 - GROCERY (EXC CONVENIENCE) STORES
POINT (-90.088427606981 29.984382736029),381131,"THE BAYOU GROCERY, LLC",THE BAYOU GROCERY,3443 ESPLANADE AVE,134,NEW ORLEANS,LA,70119,,1101 - CONVENIENCE STORES
POINT (-90.087753150927 29.924002275098),380841,BREAUX MART SUPERMARKETS INC,BREAUX MART SUPERMARKETS,3233 MAGAZINE ST,,NEW ORLEANS,LA,70115,,1106 - GROCERY (EXC CONVENIENCE) STORES
POINT (-90.114475359747 30.00498527935),380883,CHRIS SPECIALTY FOODS LLC,CHRIS SPECIALTY FOODS LLC,6251 WEST END BLVD,,NEW ORLEANS,LA,70124,,1103 - MEAT MARKETS
POINT (-90.076989294557 29.951922709288),380991,M & K MEAT MARKET INC,M & K MEAT MARKET,1330 ODEON AVE,,NEW ORLEANS,LA,70114,973-248-7786,1103 - MEAT MARKETS
POINT (-90.076989294557 29.951922709288),381022,NEW ORLEANS FISH HOUSECO,NEW ORLEANS FISH HOUSE,P.O BOX 4126,,NEW ORLEANS,LA,70178,504-821-9700,0135 - FISH & SEAFOOD WHLSRS
POINT (-90.062656335105 29.961869327035),381055,MISAEL LLC,QUARTER MASTER DELI,1100 BOURBON ST,,NEW ORLEANS,LA,70116,,1101 - CONVENIENCE STORES
POINT (-90.076989294557 29.951922709288),380812,"LISA & LIZ, CORP        NGUYEN, BA V",ADAMS FOOD STORE #3,3001 BIENVILLE ST,,NEW ORLEANS,LA,70119-5401,504-861-1120,1101 - CONVENIENCE STORES
POINT (-89.993247916412 30.013710001683),380916,"EAST SIDE CASH & CARRY,",EAST SIDE CASH & CARRY INC,7943 CHEF MENTEUR HWY,,NEW ORLEANS,LA,70126,504-243-9797,1101 - CONVENIENCE STORES
POINT (-90.079283058695 29.995957749312),381110,SPIDERS I LLC,SPIDERS  MEAT MARKET,3800 ST BERNARD AVE,,NEW ORLEANS,LA,70122,504-455-8170,1106 - GROCERY (EXC CONVENIENCE) STORES
POINT (-90.076989294557 29.951922709288),380892,"DURGA ENTERPRISES, INC",COMPAK FOOD & DELI,501 DAUPHINE ST,,NEW ORLEANS,LA,70130,504-525-2311,1101 - CONVENIENCE STORES
POINT (-90.012855752183 29.971371185869),380938,BURNELL COTLON,GALVEZ GOODIES,2036 CAFFIN AVE,,NEW ORLEANS,LA,70117,504-319-5886,1106 - GROCERY (EXC CONVENIENCE) STORES
POINT (-90.084739222525 29.968093863639),380942,"TCL FAMILY,LLC",GOLDEN EXPRESS,400 N BROAD ST,,NEW ORLEANS,LA,70119,,1106 - GROCERY (EXC CONVENIENCE) STORES
POINT (-90.058418996107 29.961028678935),380820,ALTALIEH CONVENIENCE LLC,ALTALIEH CONVENIENCE,87 FRENCH MARKET PL,,NEW ORLEANS,LA,70116,504-339-8438,1101 - CONVENIENCE STORES
POINT (-90.126049679722 29.960795598782),380910,ARIYAN INC,DISCOUNT CORNER,8733 S CLAIBORNE AVE,,NEW ORLEANS,LA,70118,504-864-0057,1101 - CONVENIENCE STORES
POINT (-90.076989294557 29.951922709288),381138,THERESA MARIA LLC,TODAY'S CAJUN,1700 ST CLAUDE AVE,,NEW ORLEANS,LA,70116,,1106 - GROCERY (EXC CONVENIENCE) STORES
POINT (-90.064770504246 29.958101613683),381077,"ROUSE'S ENTERPRISES, LLC",ROUSES MARKET #30,701 ROYAL ST,,NEW ORLEANS,LA,70116,504-447-5998,1106 - GROCERY (EXC CONVENIENCE) STORES
POINT (-90.076989294557 29.951922709288),380985,TRIPLE A CAVIAR L.L.C.,LOUISIANA CAVIAR CO.,829 SAINT CHARLES AVE,,NEW ORLEANS,LA,70130,,0135 - FISH & SEAFOOD WHLSRS
POINT (-90.057212000722 29.978814292306),380903,"DANG ENTERPRISE , INC.",DANNY FOOD STORE,2101 ELYSIAN FIELDS AVE,,NEW ORLEANS,LA,70117,,1106 - GROCERY (EXC CONVENIENCE) STORES
POINT (-89.911367964934 30.035968125017),380879,"CHEF MARKET,LLC",CHEF MARKET,14400 CHEF MENTEUR HWY,,NEW ORLEANS,LA,70129,,1101 - CONVENIENCE STORES
POINT (-90.13069134041 29.948247683366),381101,SIMONES MARKET LLC,SIMONES MARKET,8201 OAK ST,,NEW ORLEANS,LA,70118,,1106 - GROCERY (EXC CONVENIENCE) STORES
POINT (-90.100097872802 29.921048906742),380823,REDZONE MAGAZINE,AVENUE MART LLC,4237 MAGAZINE ST,,NEW ORLEANS,LA,70115,(504899-8579,1101 - CONVENIENCE STORES
POINT (-90.073278103732 29.980354849508),380955,INSANITEA KOMBUCHA LLC,INSANITEA KOMBUCHA,2526 D'ABADIE ST,,NEW ORLEANS,LA,70119,,"0138 - GROCERY & RELATED PRDCTS WHLSRS, OTH"
POINT (-90.108248729479 29.935080936354),381122,"SUPERMACADO LAS ACACIAS, LLC",SUPERMERCADO LAS ACACIAS,4929 FRERET ST,,NEW ORLEANS,LA,70115,504-896-2251,1101 - CONVENIENCE STORES
POINT (-90.066380753172 29.95102175518),380862,DEEP SOUTH GROCERY CO IN,CAJUN COUNTRY STORE,400 CANAL ST,,NEW ORLEANS,LA,70130,504-586-8753,1101 - CONVENIENCE STORES
POINT (-90.051969783282 29.964942085969),381095,SCHIRO'S SUPER FOOD STORE INC,SCHIRO'S SUPER FOOD STORE INC,2483 ROYAL ST,,NEW ORLEANS,LA,70117,504-945-4425,1105 - FULL SVC RESTAURANTS (TABLE SERVICE)
POINT (-90.050351857753 29.96450211341),381000,MARDI GRAS ZONE LLC,MARDI GRAS ZONE GROCERY,2706 ROYAL ST,,NEW ORLEANS,LA,70117,504-647-8787,1106 - GROCERY (EXC CONVENIENCE) STORES
POINT (-89.999912773961 29.911395962499),380810,ARAMIX INC.,A & J'S MART,5163 GENERAL DE GAULLE DR,,NEW ORLEANS,LA,70131,504-394-4410,1101 - CONVENIENCE STORES
POINT (-90.041061519593 29.945391083733),381031,"XUAN HUY,LLC",NOLA FOOD MART,943 WHITNEY AVE,,NEW ORLEANS,LA,70114,985-856-6088,1101 - CONVENIENCE STORES
POINT (-90.071705469347 29.983691972989),381035,"AAA BUI,INC",NORTH BROAD SUPERMARKET,1901 N BROAD ST,,NEW ORLEANS,LA,70119,504-945-7369,1106 - GROCERY (EXC CONVENIENCE) STORES
POINT (-90.034488229446 29.992567882868),380984,SHAED LLC,LOUISA MINI MART,3423 LOUISA ST,,NEW ORLEANS,LA,70126,504-392-5513,1101 - CONVENIENCE STORES
POINT (-90.048008168511 29.977125829774),380933,FRANKLIN AVENUE MARKET LLC,FRANKLIN FOOD MART,1843 FRANKLIN AVE,,NEW ORLEANS,LA,70117,,1101 - CONVENIENCE STORES
POINT (-90.089613892179 29.963380470941),380828,"JADE, INC",BANKS MEAT MARKET,325 S BROAD ST,,NEW ORLEANS,LA,70119,504-822-9004,1103 - MEAT MARKETS
POINT (-90.054241836446 29.969012037347),381056,"ALL ABOUT CONVENIENCE, LLC",QUICK STOP SHOP,2301 ST CLAUDE AVE,,NEW ORLEANS,LA,70117,,1101 - CONVENIENCE STORES
POINT (-89.965717318842 30.018620015648),381145,"TWINS SEAFOOD, LLC",TWINS SEAFOOD,10240 CHEF MENTEUR HWY,,NEW ORLEANS,LA,70127,,1104 - FISH & SEAFOOD MARKETS
POINT (-90.06711173033 29.952157164806),380912,DEEP SOUTH GROCERY CO   INC,DIXIE MARKET,501 CANAL ST,,NEW ORLEANS,LA,70130,504-586-8753,1101 - CONVENIENCE STORES
POINT (-90.109986602005 29.965227078608),380886,"CIRCLE K STORES, INC.",CIRCLE K #2707673,3725 S CARROLLTON AVE,,NEW ORLEANS,LA,70118,504-486-8377,1101 - CONVENIENCE STORES
POINT (-90.038777234312 29.97198951086),381159,"WE GOT IT, LLC",WE GOT IT,3401 N CLAIBORNE AVE,,NEW ORLEANS,LA,70117,,1101 - CONVENIENCE STORES
POINT (-90.073964813901 29.947843540234),381073,"ROUSE'S ENTERPRISES, LLC.",ROUSE'S MARKET #46(CBD),701 BARONNE ST,,NEW ORLEANS,LA,70113,504-227-3838,1106 - GROCERY (EXC CONVENIENCE) STORES
POINT (-90.072237969408 29.957895506674),380830,BASIN SUPERMARKET INC,BASIN SUPERMARKET,237 BASIN ST,,NEW ORLEANS,LA,70112,504-522-7947,1101 - CONVENIENCE STORES
POINT (-90.074652351856 29.930853531636),380993,BAO CORP,MAGAZINE DISCOUNT MARKET,2000 MAGAZINE ST,,NEW ORLEANS,LA,70130-5018,504-348-7617,1101 - CONVENIENCE STORES
POINT (-90.086452516052 29.943962410888),380968,GENGO MICHAEL A,KELLER MARKET FOOD STORE,1802 MAGNOLIA ST,,NEW ORLEANS,LA,70113,504-523-8648,1101 - CONVENIENCE STORES
POINT (-90.063233957185 29.956002452179),380837,BIG EASY MARDI GRAS CO LLC,BIG EASY MARDI GRAS CO,600 DECATUR ST,,NEW ORLEANS,LA,70130,504-524-4729,1101 - CONVENIENCE STORES
POINT (-90.019984547374 29.909550717787),380833,BEHRMAN CAJUN SEAFOOD   INC,BEHRMAN CAJUN SEAFOOD,4021 BEHRMAN HWY,C,NEW ORLEANS,LA,70114,504-813-3986,1104 - FISH & SEAFOOD MARKETS
POINT (-90.073560939023 30.001370666506),381164,WILLIBY'S CATFISH LLC,WILLIBY'S CATFISH LLC,4327 PARIS AVE,,NEW ORLEANS,LA,70122,,0135 - FISH & SEAFOOD WHLSRS
POINT (-90.099760439501 29.958456034924),380951,"HUEY LONG FOODS, LLC","HUEY LONG FOODS, LLC",4333 EUPHROSINE ST,,NEW ORLEANS,LA,70125,,"1111 - SPECIALTY FOOD STORES, ALL OTHER"
POINT (-90.021260380171 30.018230035093),380914,FADI INC,DOWNMAN SUPERMARKET,4827 DOWNMAN RD,,NEW ORLEANS,LA,70126,504-242-2882,1101 - CONVENIENCE STORES
POINT (-90.060664502353 29.972975565626),381127,"TASTY TREAT,LLC",TASTY TREAT,1900 N CLAIBORNE AVE,,NEW ORLEANS,LA,70116,,1106 - GROCERY (EXC CONVENIENCE) STORES
POINT (-90.035416980875 29.965899379565),381008,"NADA M, INC",MIKE'S FOOD MART,3935 ST CLAUDE AVE,,NEW ORLEANS,LA,70117,225-573-4326,1101 - CONVENIENCE STORES
POINT (-90.042379232761 29.967055551198),381156,"AWAMIRA, LLC",WAGNERS,3200 ST CLAUDE AVE,,NEW ORLEANS,LA,70117,504-301-1548,1106 - GROCERY (EXC CONVENIENCE) STORES
POINT (-90.066368348801 29.973370699282),380884,LAYLA LLC,CIRCLE H MEAT MARKET,1600 ST BERNARD AVE,,NEW ORLEANS,LA,70116,,1103 - MEAT MARKETS
POINT (-90.000904322955 29.911994827896),380815,"ALG DISCOUNT, LLC",ALG DISCOUNT,5101 GENERAL DE GAULLE DR,,NEW ORLEANS,LA,70131,504-253-1254,1101 - CONVENIENCE STORES
POINT (-89.982184534371 30.02939555155),381136,THE LIQUOR STORE DEPOT LLC,THE LIQUOR STORE DEPOT,9301  LAKE FOREST BLVD,109,NEW ORLEANS,LA,70127,,"1110 - BEER, WINE & LIQUOR STORES"
POINT (-90.076989294557 29.951922709288),381017,"XUAN TUYEN, INC",NEIGHBORHOOD DISCOUNT SUPERMARKET,3222 BARONNE ST,,NEW ORLEANS,LA,70115,504-899-4954,1101 - CONVENIENCE STORES
POINT (-90.057929490189 29.964286868696),380861,PROJECT RENAISSANCE LLC,CAFE ROSE NICAUD,632 FRENCHMEN ST,,NEW ORLEANS,LA,70116,504-948-6823,1105 - FULL SVC RESTAURANTS (TABLE SERVICE)
POINT (-89.973931758757 30.032979759903),381091,"MORAN FOODS, LLC",SAVE A LOT - #464-4744,9999 LAKE FOREST BLVD,,NEW ORLEANS,LA,70127,504-244-1538,1106 - GROCERY (EXC CONVENIENCE) STORES
POINT (-90.088572565855 29.963900282876),380952,250 S BROAD INC,IDEAL DISCOUNT SUPERMARKET,250 S BROAD ST,,NEW ORLEANS,LA,70119,504-822-4232,1106 - GROCERY (EXC CONVENIENCE) STORES
POINT (-90.129463224697 29.955137610335),381048,PIGEON TOWN FOOD MART LLC,PIGEON TOWN FOOD MART,8601 HICKORY ST,,NEW ORLEANS,LA,70118,,1106 - GROCERY (EXC CONVENIENCE) STORES
POINT (-90.116208668355 29.950540239962),380844,BWC INC,BROADWAY FOOD STORE,2223 BROADWAY ST,,NEW ORLEANS,LA,70118-5409,504-861-0505,1101 - CONVENIENCE STORES
POINT (-90.084367260284 29.943846847443),380831,"NGA, INC",BAYOU FOOD STORE OF N. O,2432 MARTIN LUTHER KING JR BLVD,,NEW ORLEANS,LA,70113,504-522-1004,1101 - CONVENIENCE STORES
POINT (-90.061956772381 29.967917482703),380811,A & M FOOD STORE LLC,A & M FOOD STORE,1741 MCSHANE PL,,NEW ORLEANS,LA,70116,,1106 - GROCERY (EXC CONVENIENCE) STORES
POINT (-90.046035942576 30.002410598446),380840,"BOILING POT AT GENTILLY,LLC",BOILING POT AT GENTILLY,3868 GENTILLY BLVD,,NEW ORLEANS,LA,70122,,1101 - CONVENIENCE STORES
POINT (-90.07926257345 29.96510239089),381043,OVERFLOW MARKET & CAFE,OVERFLOW MARKET & CAFE,432 N GALVEZ ST,,NEW ORLEANS,LA,70116,,1106 - GROCERY (EXC CONVENIENCE) STORES
POINT (-90.088427606981 29.984382736029),381062,"RC FOUNTAIN SERVICES OF LOUISIANA, INC.",RC FOUNTAIN SERVICES OF LOUISIANA,3443 ESPLANADE AVE,134,NEW ORLEANS,LA,70119,504-822-2250,"0138 - GROCERY & RELATED PRDCTS WHLSRS, OTH"
POINT (-90.113504034513 30.025113324481),380976,"LAKESHORE MARINE & FUEL, LLC","LAKESHORE MARINE & FUEL, LLC",7840 LAKESHORE DR,,NEW ORLEANS,LA,70124,504-723-3717,1101 - CONVENIENCE STORES
POINT (-90.024856015032 29.928114644834),380920,MALAK 2000 INC,EVERGREEN SUPERMARKET,3011 SANDRA DR,,NEW ORLEANS,LA,70114,504-368-1581,1101 - CONVENIENCE STORES
POINT (-90.070314950856 29.965630408797),380958,LABAN FOOD INC,J C FOOD MARKET,1532 ST PHILIP ST,,NEW ORLEANS,LA,70116,504-221-8270,1105 - FULL SVC RESTAURANTS (TABLE SERVICE)
POINT (-90.090535669739 29.937588147639),381107,TCVAN ASSOCIATION LLC,SOUL'S SEAFOOD MARKET #1,2732 LASALLE ST,,NEW ORLEANS,LA,70113,,1104 - FISH & SEAFOOD MARKETS
POINT (-90.062683322551 29.966698347872),380824,THE ORANGE STORE,AYYAD RAMPART,1700 N RAMPART ST,,NEW ORLEANS,LA,70116,,1101 - CONVENIENCE STORES
POINT (-90.063293825977 29.94773526893),380898,HILTON MANAGEMENT LLC,CRESCENT CITY MARKETPLACE,2 POYDRAS ST,,NEW ORLEANS,LA,70130,,1106 - GROCERY (EXC CONVENIENCE) STORES
POINT (-90.038540952832 29.97745500641),381093,"SAVERS, LLC",SAVERS,3233 N GALVEZ ST,,NEW ORLEANS,LA,70117,,1106 - GROCERY (EXC CONVENIENCE) STORES
POINT (-90.073446046224 29.970581359801),381018,AWAD INC,NEIGHBORHOOD FOOD MART,2101 GOVERNOR NICHOLLS ST,,NEW ORLEANS,LA,70116,,1106 - GROCERY (EXC CONVENIENCE) STORES
POINT (-89.911706155856 30.037540629644),381010,"H.A.T., INC",MINH CANH SUPERMARKET,4661 ALCEE FORTIER BLVD,C&D,NEW ORLEANS,LA,70129,,1101 - CONVENIENCE STORES
POINT (-90.072466457336 29.958093041992),381021,NEW IMAGE SUPERMARKET IN,NEW IMAGE MARKET,1216 BIENVILLE ST,,NEW ORLEANS,LA,70112,,1101 - CONVENIENCE STORES
POINT (-90.049105787516 29.972033373327),380983,LB SAINTS FOOD STORE CORP.,LB SAINTS FOOD STORE,2601 N VILLERE ST,,NEW ORLEANS,LA,70117,504-945-7799,1101 - CONVENIENCE STORES
POINT (-90.062963511272 29.970084731391),380979,"CANGELOSI JR, LAWRENCE",LARRY & LARRY GROCERY,1340 ANNETTE ST,,NEW ORLEANS,LA,70116,,1101 - CONVENIENCE STORES
POINT (-90.078000362258 29.94062806453),380889,"CK'S HOT SHOPPE, LLC",CK'S  HOT SHOPPE,1433 BARONNE ST,,NEW ORLEANS,LA,70113,504-309-5150,1106 - GROCERY (EXC CONVENIENCE) STORES
POINT (-90.071449071823 29.982083405195),381006,"MID CITY MARKET,L.L.C.",MID CITY MARKET,2526 ST BERNARD AVE,,NEW ORLEANS,LA,70119,504-324-9273,1104 - FISH & SEAFOOD MARKETS
POINT (-90.13128437985 29.956317025152),380913,"DON'S FOOD MART, LLC",DON'S FOOD  MART,1730 EAGLE ST,,NEW ORLEANS,LA,70118,,1101 - CONVENIENCE STORES
POINT (-90.012022035652 29.923630354496),381166,WINN DIXIE MONTGOMERY LLC,WINN DIXIE #1426,3008 HOLIDAY DR,,NEW ORLEANS,LA,70131,504-398-0313,1106 - GROCERY (EXC CONVENIENCE) STORES
POINT (-90.087753150927 29.924002275098),380989,HISSHO SUSHI,"LWIN FAMILY CO, LLC",3233 MAGAZINE ST,,NEW ORLEANS,LA,70115,,0135 - FISH & SEAFOOD WHLSRS
POINT (-90.096752672849 29.954871356058),381066,"RD AMERICA, LLC",RESTAURANT DEPOT,1111 S BROAD ST,,NEW ORLEANS,LA,70125,504-822-8881,"1501 - DURABLE GOODS WHLSRS, OTHER MISC"
POINT (-90.033606593077 29.965625339),380997,"ALLADDIN ENTERPRISES, INC.",MAGNOLIA SUPERMARKET # 3,4131 ST CLAUDE AVE,,NEW ORLEANS,LA,70117-5336,504-948-2224,1101 - CONVENIENCE STORES
POINT (-90.049021257163 29.974264440136),380891,"AWNI, INC",CLAIBORNE SUPERMARKET,2541 N CLAIBORNE AVE,,NEW ORLEANS,LA,70117,504-948-2327,1106 - GROCERY (EXC CONVENIENCE) STORES
POINT (-89.927778207906 30.032576046553),381003,KIM & VU LLC,MATT'S GROCERY,4655 MICHOUD BLVD,,NEW ORLEANS,LA,70129,,1101 - CONVENIENCE STORES
POINT (-90.076989294557 29.951922709288),380894,"JOS FEIN CATERERS, INC",COURT LIQUORS,618-620 BOURBON ST,,NEW ORLEANS,LA,70130,504-581-5804,1101 - CONVENIENCE STORES
POINT (-90.047561151371 29.976758936891),381090,"MORAN FOODS, LLC",SAVE A LOT #379-5324,1841 ALMONASTER AVE,,NEW ORLEANS,LA,70117,504-942-0897,1106 - GROCERY (EXC CONVENIENCE) STORES
POINT (-90.084498011128 29.980560028655),380869,CANSECO'S ESPLANADE LLC,CANSECO'S ESPLANADE MARKET,3135 ESPLANADE AVE,,NEW ORLEANS,LA,70119,504-322-2594,1106 - GROCERY (EXC CONVENIENCE) STORES
POINT (-90.053327759356 29.997409977523),380857,SANAD LLC,BROWN DERBY #4,3737 CLEMATIS ST,,NEW ORLEANS,LA,70122,,1105 - FULL SVC RESTAURANTS (TABLE SERVICE)
POINT (-90.075488832888 29.949935750897),380947,NUMACHI LLC,HANDY PIX,1100 POYDRAS ST,110,NEW ORLEANS,LA,70163,,1101 - CONVENIENCE STORES
POINT (-90.076793346064 29.97738118601),380843,"DON DO, INC",BROADVIEW SEAFOOD,1468 N BROAD ST,,NEW ORLEANS,LA,70119,504-945-2118,1104 - FISH & SEAFOOD MARKETS
POINT (-89.972487173775 30.046546723894),380972,"ND GROUP ENTERPRISES, IN",KWIK PIK,11040 MORRISON RD,,NEW ORLEANS,LA,70127,504-606-2833,1101 - CONVENIENCE STORES
POINT (-90.049790320384 29.972151382527),380854,BROTHERS FRANKLIN INC,BROTHERS FRANKLIN,2509 N VILLERE ST,,NEW ORLEANS,LA,70117,504-495-3342,1101 - CONVENIENCE STORES
POINT (-90.070673344235 29.984927088372),380902,K & O BROTHERS LLC,D & M DISCOUNT STORE,2037 N BROAD ST,,NEW ORLEANS,LA,70119,504-235-3478,1106 - GROCERY (EXC CONVENIENCE) STORES
POINT (-89.991753300368 29.90525121439),380965,"JULIAN FOOD STORE,LLC",JULIAN FOOD STORE,4500 WOODLAND DR,,NEW ORLEANS,LA,70131,,1101 - CONVENIENCE STORES
POINT (-90.111735057594 29.956559532172),380900,HENRIETTE KAMBI,CTN GROCERY,2931 BROADWAY ST,,NEW ORLEANS,LA,70125,,1101 - CONVENIENCE STORES
POINT (-90.076989294557 29.951922709288),380973,ATILANO LOPEZ LUIS,LA FAVORITA MARKET,3640 GENERAL DE GAULLE DR,,NEW ORLEANS,LA,70114,504-217-1184,1101 - CONVENIENCE STORES
POINT (-90.066684402037 29.947361153343),380975,"LAFAYETTE MINI MART, LLC",LAFAYETTE MINI MART,322 LAFAYETTE ST,,NEW ORLEANS,LA,70130,504-522-1710,1101 - CONVENIENCE STORES
POINT (-90.073713765863 29.961238587475),381046,"PIAZZA SR, VINCENT",PAUL PIAZZA & SON INC,1552 ST LOUIS ST,,NEW ORLEANS,LA,70112,504-524-6011,0135 - FISH & SEAFOOD WHLSRS
POINT (-90.076989294557 29.951922709288),381088,"MORAN FOODS, LLC",SAVE -A- LOT #466-6435,3033 S CARROLLTON AVE,,NEW ORLEANS,LA,70118,504-866-6637,1106 - GROCERY (EXC CONVENIENCE) STORES
POINT (-90.071234696353 29.938076735378),380926,"FAT BOY PANTRY LOUISIANA,LLC",FAT BOY PANTRY,1302 MAGAZINE ST,,NEW ORLEANS,LA,70130,,1106 - GROCERY (EXC CONVENIENCE) STORES
POINT (-90.13026444504 29.95013195612),381118,MAMA INC,STOP & CARRY GROCERY,1328 DANTE ST,,NEW ORLEANS,LA,70118,504-866-8347,1101 - CONVENIENCE STORES
POINT (-90.070033208846 29.951946172854),381083,"LA 405 CHEN, LLC",S & K GIFT AND SNACKS,201 ST CHARLES AVE,#223,NEW ORLEANS,LA,70170,,1101 - CONVENIENCE STORES
POINT (-90.061506984558 29.964690060342),380919,ALLAN'S GROCERY LLC,ESPLANADE MINI MART,839 ESPLANADE AVE,,NEW ORLEANS,LA,70116,504-329-8179,1101 - CONVENIENCE STORES
POINT (-90.092276675018 29.939631140245),380874,"CENTRAL CITY GROCERY #3, INC.",CENTRAL CITY GROCERY #3,2611 WASHINGTON AVE,,NEW ORLEANS,LA,70113,,1101 - CONVENIENCE STORES
POINT (-89.991662452936 30.028219649029),381150,UR FAMILY MATTERS INC,UR FAMILY MATTERS,5741 CROWDER BLVD,,NEW ORLEANS,LA,70127,404-915-8892,1101 - CONVENIENCE STORES
POINT (-90.073184010579 29.98903338961),381098,"SEATON, CAROLYN         SEATON, EDDIE",SEATON SEAFOOD MARKET,3040 PARIS AVE,,NEW ORLEANS,LA,70119,,1104 - FISH & SEAFOOD MARKETS
POINT (-90.088267302362 29.942792436572),380995,"JAOUMARI, INC",MAGNOLIA SUPERMARKET,2201 MAGNOLIA ST,,NEW ORLEANS,LA,70113,504-523-0017,1101 - CONVENIENCE STORES
POINT (-90.071760684628 29.988947579743),381012,MANIFESTED MIRACLES,MIRACLES TO GO,3040 BRUXELLES ST,,NEW ORLEANS,LA,70119,504-252-8290,1101 - CONVENIENCE STORES
POINT (-90.0598851894 30.012307809027),380868,"CANSECO'S ELYSIAN FIELDS, LLC",CANSECO'S ELYSIAN FIELDS,5217 ELYSIAN FIELDS AVE,,NEW ORLEANS,LA,70122,504-304-9805,1106 - GROCERY (EXC CONVENIENCE) STORES
POINT (-90.111533790201 30.020637775745),381071,M ROBERT ENTERPRISES INC,ROBERT FRESH MARKET(ROBT E LEE),135 ROBERT E LEE BLVD,,NEW ORLEANS,LA,70124,504-885-7005,1106 - GROCERY (EXC CONVENIENCE) STORES
POINT (-90.070350261102 29.950865290084),381013,ABDUL S KHAN,MOMS MINI MART,327 ST CHARLES AVE,,NEW ORLEANS,LA,70130,504-596-2223,1101 - CONVENIENCE STORES
POINT (-90.068797991638 29.955838482173),380822,ARNAUD'S FOOD COMPANY IN,ARNAUD'S FOOD COMPANY'S  INC,813 BIENVILLE ST,,NEW ORLEANS,LA,70112,504-523-5433,"0138 - GROCERY & RELATED PRDCTS WHLSRS, OTH"
POINT (-89.991780649006 30.029722439012),381086,SAMI LLC,SAM'S MEAT MARKET,8426 I 10 E SERVICE RD,,NEW ORLEANS,LA,70127,,1103 - MEAT MARKETS
POINT (-90.116647522993 29.916272459096),381165,WINN DIXIE MONTGOMERY LLC,WINN DIXIE  #1430,5400 TCHOUPITOULAS ST,,NEW ORLEANS,LA,70115,504-895-2966,1106 - GROCERY (EXC CONVENIENCE) STORES
POINT (-90.110329331671 29.981336791496),381135,THE HERB IMPORT COMPANY INC,THE HERB IMPORT COMPANY,5055 CANAL ST,,NEW ORLEANS,LA,70119,504-488-4889,"1111 - SPECIALTY FOOD STORES, ALL OTHER"
POINT (-90.080712101078 29.923530885399),381028,BACKUP JIC LLC,NICKS SUPERMARKET,746 WASHINGTON AVE,,NEW ORLEANS,LA,70130,,1106 - GROCERY (EXC CONVENIENCE) STORES
POINT (-90.037161039214 29.94512400381),380852,NEWTON BROTHERS INC,BROTHERS FOOD MART NO 122,1926 NEWTON ST,,NEW ORLEANS,LA,70114,504-366-2413,1101 - CONVENIENCE STORES
POINT (-90.125729836596 29.954415480643),381149,UPTOWN DANTE SUPERMARKET INC,UPTOWN SUPERMARKET,1940 DANTE ST,,NEW ORLEANS,LA,70118,504-455-4111,1106 - GROCERY (EXC CONVENIENCE) STORES
POINT (-90.022968620619 29.940426723668),380818,"ALGIERS SUPERMARKET,LLC",ALGIERS SUPERMARKET,3141 GENERAL MEYER AVE,,NEW ORLEANS,LA,70114,,1106 - GROCERY (EXC CONVENIENCE) STORES
POINT (-90.046917508466 29.981273777034),380998,VIEN MAN INC,MAMA'S COOKING,2722 N TONTI ST,,NEW ORLEANS,LA,70117,,1101 - CONVENIENCE STORES
POINT (-90.001739059241 30.011739043564),381016,"QUYNH NGUYEN, INC.",NATAL'S SUPERMARKET,7342 CHEF MENTEUR HWY,,NEW ORLEANS,LA,70126,504-362-3911,1101 - CONVENIENCE STORES
POINT (-90.077557427351 29.971907910096),380953,KAKI INC,IDEAL SUPER MARKET,2436 URSULINES AVE,,NEW ORLEANS,LA,70119,504-821-9339,1106 - GROCERY (EXC CONVENIENCE) STORES
POINT (-90.100564500453 29.951143569012),380924,MONA REALTY LLC,FAST STOP,2745 S BROAD ST,,NEW ORLEANS,LA,70125,,1106 - GROCERY (EXC CONVENIENCE) STORES
POINT (-90.076989294557 29.951922709288),380859,KEITH BUNN,BUNN'S GROCERY,2438 BIENVILLE ST,,NEW ORLEANS,LA,70119,,1101 - CONVENIENCE STORES
POINT (-90.068486455332 29.941694279561),381049,POEYFARRE MARKET LLC,POEYFARRE MARKET,925 POEYFARRE ST,,NEW ORLEANS,LA,70130,504-522-5252,1101 - CONVENIENCE STORES
POINT (-90.067831029863 29.950467848896),381019,"NESBIT'S MAGAZINE STREET MARKET, LLC",NESBIT'S MAGAZINE STREET MARKET,301 MAGAZINE ST,,NEW ORLEANS,LA,70130,,1101 - CONVENIENCE STORES
POINT (-90.128047904994 29.940828422897),380928,ANNAM INC,FAVORI,7507 MAPLE ST,,NEW ORLEANS,LA,70118,504-866-8140,1101 - CONVENIENCE STORES
POINT (-90.058664858541 29.960791786166),380957,"KIM, YOUNG DUK",J C DELI,65 FRENCH MARKET PL,,NEW ORLEANS,LA,70116,504-522-2961,1101 - CONVENIENCE STORES
POINT (-90.097667892428 29.96474221975),380856,NEW CITY MART LLC,BROWN DERBY #3,3326 TULANE AVE,,NEW ORLEANS,LA,70119,504-827-7899,1101 - CONVENIENCE STORES
POINT (-89.961463467552 30.04342760691),381157,"WAL-MART LOUISIANA, LLC",WAL-MART #912(EASTERN NO),6000 BULLARD AVE,,NEW ORLEANS,LA,70128,479-204-6234,"1119 - GENERAL MERCHANDISE STORES, ALL OTH"
POINT (-90.066028246976 29.961328059028),381054,ROSEMARY & TRANG INC,QUARTER GROCERY & DELI,836 BURGUNDY ST,,NEW ORLEANS,LA,70116,504-529-2702,1101 - CONVENIENCE STORES
POINT (-90.09299298299 29.931916183708),380922,FAMILY DISCOUNT STORE INC,FAMILY DISCOUNT STORE,1935 LOUISIANA AVE,,NEW ORLEANS,LA,70115,504-895-4272,1101 - CONVENIENCE STORES
POINT (-90.076688850127 29.962241854081),380941,"HILLIARD, GLORIA",GLORIA'S GROCERY,1800 CONTI ST,,NEW ORLEANS,LA,70112,,1101 - CONVENIENCE STORES
POINT (-90.058567554095 29.961611404824),381103,BAZAAR LLC,SMALL MART,1303 DECATUR ST,,NEW ORLEANS,LA,70116,504-330-5716,1101 - CONVENIENCE STORES
POINT (-90.054985111701 29.974855139885),380960,JACK MEAT MARKET INC.,JACK MEAT MARKET,2279 N DERBIGNY ST,,NEW ORLEANS,LA,70117,504-947-3073,1101 - CONVENIENCE STORES
POINT (-90.081520352995 29.967798519509),381072,ROCHEBLAVE FOOD STORE INC,ROCHEBLAVE FOOD STORE,601 N ROCHEBLAVE ST,,NEW ORLEANS,LA,70119,,1101 - CONVENIENCE STORES
POINT (-90.125334422119 29.945537782293),380813,B & N FOOD STORE INC,ADAMS STREET GROCERY,1309 ADAMS ST,,NEW ORLEANS,LA,70118,,1101 - CONVENIENCE STORES
POINT (-90.01927611874 29.938688005792),380817,ALGIERS DISCOUNT FOOD STORE INC,ALGIERS DISCOUNT FOOD STORE,3549 GENERAL MEYER AVE,,NEW ORLEANS,LA,70114,,1106 - GROCERY (EXC CONVENIENCE) STORES
POINT (-90.074406818648 29.928523677809),380826,JOSEPHINE FOOD STORE LLC,B & S FOOD STORE,842 JOSEPHINE ST,,NEW ORLEANS,LA,70130,,1106 - GROCERY (EXC CONVENIENCE) STORES
POINT (-90.076989294557 29.951922709288),381133,MAGNOLIA ENTERPRISES INC,THE EVERYTHING SHOPPE,444 CANAL ST,,NEW ORLEANS,LA,70130,504-586-0703,"1110 - BEER, WINE & LIQUOR STORES"
POINT (-90.037785477168 29.966017663187),381009,MMBS INC.,MIKE'S FOOD STORE,3708 ST CLAUDE AVE,,NEW ORLEANS,LA,70117,504-390-7943,1106 - GROCERY (EXC CONVENIENCE) STORES
POINT (-90.097981138239 29.978399614138),380896,CREOLE COUNTRY INC,CREOLE COUNTRY INC,512 DAVID ST,,NEW ORLEANS,LA,70119,,1103 - MEAT MARKETS
POINT (-90.078228009937 29.993840794513),381119,STOPJOCKIN,STOPJOCKIN,3600 JUMONVILLE ST,,NEW ORLEANS,LA,70122,,1101 - CONVENIENCE STORES
POINT (-90.0205062234 29.962674429417),381041,"THE AMAZING GOOD SHEPHERD,LLC",ORANGE FOOD STORE,5131 ST CLAUDE AVE,,NEW ORLEANS,LA,70117,,1106 - GROCERY (EXC CONVENIENCE) STORES
POINT (-90.064357803439 29.961789081768),381002,TEN-O-ONE CORPORATION,MATASSA'S MARKET,1001 DAUPHINE ST,,NEW ORLEANS,LA,70116,504-412-8700,1101 - CONVENIENCE STORES
POINT (-90.113419520221 29.946207863374),380887,CIRCLE K STORES INC,CIRCLE K #4906,6229 S CLAIBORNE AVE,,NEW ORLEANS,LA,70125,504-861-9107,1101 - CONVENIENCE STORES
POINT (-90.037680912824 29.945147364747),380836,BIG DADDY'S SEAFOOD,BIG DADDY'S SEAFOOD,1900 NEWTON ST,,NEW ORLEANS,LA,70114,,1104 - FISH & SEAFOOD MARKETS
POINT (-89.739391994785 30.164068736218),381155,"VINOT'S MARINA, LLC","VINOT'S MARINA, LLC",27010 CHEF MENTEUR HWY,,NEW ORLEANS,LA,70129,,1101 - CONVENIENCE STORES
POINT (-90.056054896082 29.968358854848),381069,ST. CLAUDE FRESH MARKET LLC,ROBERT FRESH MARKET,2222 ST CLAUDE AVE,,NEW ORLEANS,LA,70117,,1106 - GROCERY (EXC CONVENIENCE) STORES
POINT (-90.076989294557 29.951922709288),381058,JAFAR ABUKHALIL INC,QUICKY'S,2701 TULANE AVE,,NEW ORLEANS,LA,70119,504-822-3429,1106 - GROCERY (EXC CONVENIENCE) STORES
POINT (-89.91223667081 30.037409320956),381154,HANG VU ENTERPRISES     INC,VIET MY SUPERMARKET,4656 ALCEE FORTIER BLVD,,NEW ORLEANS,LA,70129,504-254-0682,1101 - CONVENIENCE STORES
POINT (-90.014875401181 30.010130317941),380929,SHIVAS LLC,FOOD PLUS,6232 CHEF MENTEUR HWY,UNIT A,NEW ORLEANS,LA,70126,504-246-2628,1106 - GROCERY (EXC CONVENIENCE) STORES
POINT (-90.091364216493 29.944658711819),381108,"ZAK DANIELS,LLC",SOUTH CLAIBORNE MARKET,2349 S CLAIBORNE AVE,,NEW ORLEANS,LA,70125,,1106 - GROCERY (EXC CONVENIENCE) STORES
POINT (-89.801162595894 30.071416277476),380878,"LOUIS VIAVANT BOAT HARBOVIAVANT, GEORGE L",CHEF HARBOR,21135 CHEF MENTEUR HWY,,NEW ORLEANS,LA,70129,504-662-5511,"1111 - SPECIALTY FOOD STORES, ALL OTHER"
POINT (-90.10071116496 29.951430346835),380870,CAPSTONE 118 INC,CAPSTONE 118,4035 WASHINGTON AVE,,NEW ORLEANS,LA,70125,,"0138 - GROCERY & RELATED PRDCTS WHLSRS, OTH"
POINT (-90.009551503804 30.011552259434),381130,TEX MART INC,TEX MART,6733 CHEF MENTEUR HWY,,NEW ORLEANS,LA,70126,504-333-6282,1101 - CONVENIENCE STORES
POINT (-90.096759500936 29.929135085263),381001,"DAVID Y. MARTIN JR., LLC",MARTIN WINE CELLAR,3827 BARONNE ST,,NEW ORLEANS,LA,70115,504-897-0191,1101 - CONVENIENCE STORES
POINT (-90.051260302514 29.950789428731),380927,"FAUBOURG FRESH MARKET, LLC",FAUBOURG FRESH MARKET,541 BERMUDA ST,,NEW ORLEANS,LA,70114,,1106 - GROCERY (EXC CONVENIENCE) STORES
POINT (-90.118713740516 29.916084770997),381128,UPTOWN GAS STATION MANAGLLC,TCHOUP-STOP,5600 TCHOUPITOULAS ST,,NEW ORLEANS,LA,70115,504-595-3112,1101 - CONVENIENCE STORES
POINT (-89.989134921084 30.04670832449),380945,HABIBI GROCERY L.L.C.,HABIBI GROCERY,9530 HAYNE BLVD,,NEW ORLEANS,LA,70127,504-220-8250,1101 - CONVENIENCE STORES
POINT (-90.076989294557 29.951922709288),380940,GENTILLY FOOD MART INC,GENTILLY FOOD MART INC,1929 GENTILLY BLVD,,NEW ORLEANS,LA,70119,,1101 - CONVENIENCE STORES
POINT (-90.068895456545 29.95962519443),381044,P & J OYSTER CO,P & J OYSTER CO,1039 TOULOUSE ST,,NEW ORLEANS,LA,70112,504-523-2651,0135 - FISH & SEAFOOD WHLSRS
POINT (-90.08288634294 29.971298506486),381042,ORLEANS CENTER MARKET LLC,ORLEANS CENTER MARKET,2707 ORLEANS AVE,,NEW ORLEANS,LA,70119,,1101 - CONVENIENCE STORES
POINT (-90.061142064221 29.95874955114),381100,SIDNEY'S LLC,SIDNEY'S WINE CELLAR,917 DECATUR ST,,NEW ORLEANS,LA,70116,,1106 - GROCERY (EXC CONVENIENCE) STORES
POINT (-90.09173668005 29.919281850904),380829,"BARCIA'S GROCERY INC    ORGANO, ANN B",BARCIA'S GROCERY INC,3633 ANNUNCIATION ST,,NEW ORLEANS,LA,70115-1306,504-899-9111,1101 - CONVENIENCE STORES
POINT (-90.073182612543 29.943511889095),380885,"CIRCLE K STORES, INC.",CIRCLE K #2707672,704 HOWARD AVE,,NEW ORLEANS,LA,70130,504-586-3042,1101 - CONVENIENCE STORES
POINT (-90.082568661226 29.942860681516),381052,PROJECT FOOD STORE      #2 INC,PROJECT FOOD STORE #2,2238 MARTIN LUTHER KING JR BLVD,,NEW ORLEANS,LA,70113,504-586-1762,1101 - CONVENIENCE STORES
POINT (-90.068615888491 29.953830693614),381146,SAM & SONS INC.,UNIQUE GENERAL STORE,127 ROYAL ST,,NEW ORLEANS,LA,70130,,1101 - CONVENIENCE STORES
POINT (-90.090161901843 29.937801891841),380935,JENNEFER TRAN INC,FRIENDLY SUPERMARKET,2704 LA SALLE ST,,NEW ORLEANS,LA,70113,,1101 - CONVENIENCE STORES
POINT (-89.989427025353 30.024450327616),380974,LA FOOD INC,LA FOOD,5200 CROWDER BLVD,,NEW ORLEANS,LA,70127,504-638-1350,1101 - CONVENIENCE STORES
POINT (-90.067049441458 29.974737015023),380904,P & N ENTERPRISES INC,DANNY'S PACKAGE LIQUOR & SEAFOOD MKT,1812 ONZAGA ST,,NEW ORLEANS,LA,70116,504-949-8666,1101 - CONVENIENCE STORES
POINT (-90.076989294557 29.951922709288),381113,MAGNOLIA ENTERPRISES INC,ST. CHARLES MARKET,303 ST. CHARLES AVE,,NEW ORLEANS,LA,70130,,1106 - GROCERY (EXC CONVENIENCE) STORES
POINT (-90.011105556545 29.959686103792),381033,M & J FOOD STORE INC,NOLA VILLAGE MARKET,6100 ST CLAUDE AVE,,NEW ORLEANS,LA,70117,504-377-0670,1106 - GROCERY (EXC CONVENIENCE) STORES
POINT (-90.021155486716 30.034317301373),380950,ASEL INC,HAYNE SUPERMARKET,6318 HAYNE BLVD,,NEW ORLEANS,LA,70126,504-244-9739,1106 - GROCERY (EXC CONVENIENCE) STORES
POINT (-90.085893105983 29.945171053157),380849,AZZAM INC,BROTHERS DISCOUNT,2701 MARTIN LUTHER KING JR BLVD,,NEW ORLEANS,LA,70113,504-525-5300,1101 - CONVENIENCE STORES
POINT (-90.034917792075 30.001839081852),380907,BINH VAN CORPORATION,DAY & NIGHT DISCOUNT,4039 LOUISA ST,B,NEW ORLEANS,LA,70126,,1101 - CONVENIENCE STORES
POINT (-90.007948358098 29.918707807633),381137,TIGER MART LLC.,TIGER MART,3450 KABEL DR,,NEW ORLEANS,LA,70131,504-394-0240,1101 - CONVENIENCE STORES
POINT (-89.991699695334 30.02762875068),380850,CROWDER BROTHERS LLC,BROTHERS FOOD MART  NO 132,5701 CROWDER BLVD,,NEW ORLEANS,LA,70127,504-366-2413,1101 - CONVENIENCE STORES
POINT (-90.072379747629 29.971765108012),380911,2 NY FASHIONS INC,DISCOUNT EXPRESS,2000 ESPLANADE AVE,,NEW ORLEANS,LA,70116,504-433-8600,1101 - CONVENIENCE STORES
POINT (-90.090253277829 29.948293294504),381014,MOUSA INC,MOUSA'S GROCERY,3208 THALIA ST,,NEW ORLEANS,LA,70125,504-324-7586,1106 - GROCERY (EXC CONVENIENCE) STORES
POINT (-90.073399463627 29.961144757696),380934,FRENCH QUATER FOOD MART,FRENCH QUATER FOOD MART,1534 SAINT LOUIS ST,A,NEW ORLEANS,LA,70112,,1101 - CONVENIENCE STORES
POINT (-90.025441724898 29.927311712994),380906,"DAT'S CAJUN SEAFOOD, LLC",DAT'S CAJUN SEAFOOD,3020 GENERAL DE GAULLE DR,,NEW ORLEANS,LA,70114,504-362-8252,1104 - FISH & SEAFOOD MARKETS
POINT (-90.091054336351 29.931805891715),380846,"PARKS, EDWARD",BROTHER CORNER GROCERY,3201 DRYADES ST,,NEW ORLEANS,LA,70115,504-891-0275,1101 - CONVENIENCE STORES
POINT (-90.089290585975 29.946442822093),380909,T & HO LLC,DISCOUNT CITY,2013 S CLAIBORNE AVE,D,NEW ORLEANS,LA,70125,,1101 - CONVENIENCE STORES
POINT (-90.077627154369 29.980972783999),380939,GENTILLY FOOD MART INC,GENTILLY FOOD MART,1629 GENTILLY BLVD,,NEW ORLEANS,LA,70119,504-453-8407,1106 - GROCERY (EXC CONVENIENCE) STORES
POINT (-90.080588160646 29.934384078034),381111,BROTHERS PETROLEUM LLC,ST CHARLES 155,2139 ST CHARLES AVE,,NEW ORLEANS,LA,70130,,1101 - CONVENIENCE STORES
POINT (-90.076989294557 29.951922709288),380821,"HESS WAYNE B            ENGERON, DANIEL J",AMERICAN SEAFOOD INC,3034 HAVANA ST,,NEW ORLEANS,LA,70122,,0135 - FISH & SEAFOOD WHLSRS
POINT (-90.077682298641 29.976371599768),380981,"LAVA SUPERMARKET, INC",LAVA SUPERMARKET,1410 N BROAD ST,,NEW ORLEANS,LA,70119,,1106 - GROCERY (EXC CONVENIENCE) STORES
POINT (-90.070068409211 29.9297687441),380882,KAWTHAR ESMAIL,CHIPPEWA FOOD STORE,1684 CHIPPEWA ST,,NEW ORLEANS,LA,70130,,1101 - CONVENIENCE STORES
POINT (-90.117599871971 30.005572416608),381161,WEST HARRISON DELI & MARKET LLC,WEST HARRISON DELI & MARKET,206 W HARRISON AVE,,NEW ORLEANS,LA,70124,,1106 - GROCERY (EXC CONVENIENCE) STORES
POINT (-90.080638228044 29.974466255347),381084,S EXPRESS FOOD STORE LLC,S EXPRESS FOOD STORE,2703 URSULINES AVE,,NEW ORLEANS,LA,70119,,1106 - GROCERY (EXC CONVENIENCE) STORES
POINT (-90.079916568456 29.944893970647),381147,UPTOWN DISCOUNT STORE INC,UPTOWN DISCOUNT STORE,1141 SIMON BOLIVAR AVE,,NEW ORLEANS,LA,70113,504-610-7162,1101 - CONVENIENCE STORES
POINT (-89.97902656146 30.051703843972),380873,CASTNET SEAFOOD INC,CASTNET,10826 HAYNE BLVD,,NEW ORLEANS,LA,70127,,1104 - FISH & SEAFOOD MARKETS
POINT (-90.014464227185 29.920483535643),381079,"ROUSE'S ENTERPRISES, LLC",ROUSES MARKET #36(DE GAULLE),4001 GENERAL DE GAULLE DR,,NEW ORLEANS,LA,70114,985-447-5998,1106 - GROCERY (EXC CONVENIENCE) STORES
POINT (-89.980786717109 30.042348592751),381063,TBN SEAFOOD CORPORATION,READ SEAFOOD,7340 READ BLVD,,NEW ORLEANS,LA,70127,504-377-8892,1101 - CONVENIENCE STORES
POINT (-90.024595285968 30.025278143098),380925,"FAST STOP OF DOWNMAN,LLC",FAST STOP,7200 DOWNMAN RD,,NEW ORLEANS,LA,70126,,1101 - CONVENIENCE STORES
POINT (-90.085226895461 29.980645150829),381129,"TERRANOVA, BENJAMIN A",TERRANOVA BROS SUPERETTE,3308 ESPLANADE AVE,,NEW ORLEANS,LA,70119-3132,,1101 - CONVENIENCE STORES
POINT (-89.912066147199 30.039183783686),380990,THU HUONG INC,LY'S SUPERMARKET,14401 PELTIER DR,130,NEW ORLEANS,LA,70129,504-254-4380,1101 - CONVENIENCE STORES
POINT (-90.112623134571 29.92058137995),380944,"MATHERNE JR, MARVIN",GUY'S FOOD STORE,5259 MAGAZINE ST,,NEW ORLEANS,LA,70115-1851,504-891-5025,1101 - CONVENIENCE STORES
POINT (-90.042646757267 29.967101679825),380871,"VU & SONS, LLC",CAPTAIN SAL'S SEAFOOD & CHICKEN,3168 ST CLAUDE AVE,,NEW ORLEANS,LA,70117,,1104 - FISH & SEAFOOD MARKETS
POINT (-90.08774928797 29.965515303894),380867,VIENNE ENTERPRISE LLC,CANAL MART & EATERY,2700 CANAL ST,A,NEW ORLEANS,LA,70119,504-821-7730,1101 - CONVENIENCE STORES
POINT (-90.052872637713 29.968701486321),381099,"SHANK SHOP, LLC",SHANK CHARCUTERIE,2352 ST CLAUDE AVE,,NEW ORLEANS,LA,70117,,1103 - MEAT MARKETS
POINT (-90.016879628305 29.961722425935),381115,MARK NGUYEN,ST. MAURICE GROCERY,5467 ST CLAUDE AVE,A,NEW ORLEANS,LA,70117,504-000-0000,1106 - GROCERY (EXC CONVENIENCE) STORES
POINT (-90.076440640472 29.929661233979),380962,"O D S, LLC",JEWEL'S FOOD STORE,2136 MAGAZINE ST,,NEW ORLEANS,LA,70130,504-524-9355,1101 - CONVENIENCE STORES
POINT (-90.08145905493 29.962423706075),380937,"GALVEZ FOOD STORE, INC.",GALVEZ FOOD STORE,120 N GALVEZ ST,,NEW ORLEANS,LA,70119,504-304-6035,1106 - GROCERY (EXC CONVENIENCE) STORES
POINT (-90.116704704989 29.926626736056),380992,M LANGENSTEIN & SONS INC,M LANGENSTEIN & SONS INC,1330 ARABELLA ST,,NEW ORLEANS,LA,70115-4205,504-899-5001,1105 - FULL SVC RESTAURANTS (TABLE SERVICE)
POINT (-90.07532784664 29.965989087219),381060,"R&B GROCERY, LLC",R&B GROCERY,1921 ORLEANS AVE,,NEW ORLEANS,LA,70116,,1106 - GROCERY (EXC CONVENIENCE) STORES
POINT (-90.076989294557 29.951922709288),381080,RANDOLPH THOMAS,RT ONE SHOP,1242 GORDON STREET,,NEW ORLEANS,LA,70117,,1101 - CONVENIENCE STORES
POINT (-89.992314528295 30.02847564279),380899,DALYA LLC,CROWDER CENTER,5769 CROWDER BLVD,,NEW ORLEANS,LA,70127,504-241-6555,1101 - CONVENIENCE STORES
POINT (-90.090573356516 29.933201095767),381148,"UPTOWN FOOD MARKET, INC",UPTOWN FOOD MARKET,2001 SEVENTH ST,,NEW ORLEANS,LA,70115,504-555-1234,1106 - GROCERY (EXC CONVENIENCE) STORES
POINT (-90.052082721172 29.946698174992),380816,"ALGIERS CENTRAL,INC",ALGIERS CENTRAL MARKET,840 TECHE ST,,NEW ORLEANS,LA,70114,504-366-3221,1106 - GROCERY (EXC CONVENIENCE) STORES
POINT (-90.096031144406 29.937276218218),380969,MAZIN INC,KEY FOOD STORE,2600 LOUISIANA AVE,,NEW ORLEANS,LA,70115,504-897-6514,1101 - CONVENIENCE STORES
POINT (-90.064811286358 29.98138426885),381067,SUNSHINE DISCOUNT FOOD INC,RICHARD'S FOOD STORE,2001 N ROCHEBLAVE ST,,NEW ORLEANS,LA,70119,504-944-2891,1101 - CONVENIENCE STORES
POINT (-90.061175279022 29.96209733698),381152,"THE VERTI MARTE, INC",VERTI MARTE INC,1201 ROYAL ST,,NEW ORLEANS,LA,70116,504-525-4767,1101 - CONVENIENCE STORES
POINT (-90.05065667633 30.012550600808),380949,MARAH LLC,HAPPY DISCOUNT,5301 FRANKLIN AVE,,NEW ORLEANS,LA,70122,,1105 - FULL SVC RESTAURANTS (TABLE SERVICE)
POINT (-90.089237394851 29.944319676401),380961,JACKSON FOOD STORE INC.,JACKSON FOOD STORE,2801 JACKSON AVE,,NEW ORLEANS,LA,70113,,1106 - GROCERY (EXC CONVENIENCE) STORES
POINT (-90.118667263273 29.941047550523),380858,SODEXO MANAGEMENT INC,BRUFF STUFF,31 MCALISTER DR,,NEW ORLEANS,LA,70118,504-865-5293,1101 - CONVENIENCE STORES
POINT (-90.132402986615 29.935202377356),381102,"NGU CORPORATION         NGUYEN, MAN V",SINGLETON MINI MART,7446 GARFIELD ST,,NEW ORLEANS,LA,70118,504-866-4741,1101 - CONVENIENCE STORES
POINT (-90.0400759319 29.944971979583),380982,LAWSONS GROCERY & DELI  INC,LAWSON'S GROCERY & DELI,1625 NEWTON ST,,NEW ORLEANS,LA,70114-2604,504-368-4958,1101 - CONVENIENCE STORES
POINT (-90.04158844227 29.929638574716),381030,"NOLA DISCOUNT, INC",NOLA DISCOUNT FOOD STORE,2204 L B LANDRY AVE,,NEW ORLEANS,LA,70114,,1101 - CONVENIENCE STORES
POINT (-90.073017894238 29.992885183192),380988,TIEN VIET VU,LUCY'S SUPERMARKET,3443 PARIS AVE,,NEW ORLEANS,LA,70122,,1106 - GROCERY (EXC CONVENIENCE) STORES
POINT (-90.105419636393 30.005017634301),380977,"HARRISON FRESH MARKET, LLC",LAKEVIEW GROCERY,801 HARRISON AVE,,NEW ORLEANS,LA,70124,504-207-0162,1106 - GROCERY (EXC CONVENIENCE) STORES
POINT (-90.076989294557 29.951922709288),380905,"WILLIAMS, WILLIE JR",DAP MINISTRIES OUTLET,1234 PRESS DR,,NEW ORLEANS,LA,70117,,"1501 - DURABLE GOODS WHLSRS, OTHER MISC"
POINT (-90.027092734627 30.032274434875),381109,COMPAK DELI INC,SPEED RACER,8020 DOWNMAN RD,104,NEW ORLEANS,LA,70126,504-248-2005,1101 - CONVENIENCE STORES
POINT (-90.099718212342 29.940895179154),380966,K & T COMMUNITY INC.,K & T COMMUNITY,3733 S CLAIBORNE AVE,,NEW ORLEANS,LA,70125,504-822-8915,1101 - CONVENIENCE STORES
POINT (-89.981250612467 30.014991441964),381104,SOHANA GROCERY STORE LLC,SOHANA GROCERY,8900 CHEF MENTEUR HWY,,NEW ORLEANS,LA,70127,,1101 - CONVENIENCE STORES
POINT (-90.061051429526 29.958835382612),380875,CENTRAL GROCERY CO. LLC,CENTRAL GROCERY CO.,923 DECATUR ST,,NEW ORLEANS,LA,70116,504-523-1620,1101 - CONVENIENCE STORES
POINT (-89.961730828006 30.047884086461),380853,BULLARD BROTHERS NO 127 LLC,BROTHERS FOOD MART NO 127,7001 BULLARD AVE,,NEW ORLEANS,LA,70128,,1101 - CONVENIENCE STORES
POINT (-90.084936422734 29.93863354083),380880,"CHICKEN MART, INC",CHICKEN MART,2200 SIMON BOLIVAR AVE,,NEW ORLEANS,LA,70113,504-522-8893,1103 - MEAT MARKETS
POINT (-89.912354762202 30.037779631289),381047,PEREZ GROCERY LLC,PEREZ GROCERY #2,4668 ALCEE FORTIER BLVD,A,NEW ORLEANS,LA,70129,,1106 - GROCERY (EXC CONVENIENCE) STORES
POINT (-90.042603784029 29.963946443834),380930,"FRADY, JOSEPH M",FRADY'S ONE STOP FOOD STORE,3231 DAUPHINE ST,,NEW ORLEANS,LA,70117,,1101 - CONVENIENCE STORES
POINT (-90.072160567787 29.966119283395),381151,THONG SINH INC,V & T FOOD STORE,913 N CLAIBORNE AVE,,NEW ORLEANS,LA,70116,504-827-9997,1106 - GROCERY (EXC CONVENIENCE) STORES
POINT (-90.087191811039 29.932805949004),381027,"NEXT DOOR GROCERY,LLC",NEXT DOOR GROCERY,2733 BARONNE ST,,NEW ORLEANS,LA,70113,,1101 - CONVENIENCE STORES
POINT (-90.090395375508 29.958770739886),380954,"MILAND SEAFOOD, INC",INLAND SEAFOOD,2527 PERDIDO ST,,NEW ORLEANS,LA,70119,504-821-4500,0135 - FISH & SEAFOOD WHLSRS
POINT (-90.108479443221 29.924484284776),381132,"CREOLE CONES, INC",THE CREOLE CREAMERY,4924 PRYTANIA ST,,NEW ORLEANS,LA,70115,504-885-7028,1101 - CONVENIENCE STORES
POINT (-90.091631734139 29.929169182979),380987,"AMERA,INC",LOUISIANA SUPER SAVER,1641 LOUISIANA AVE,A,NEW ORLEANS,LA,70115,504-891-6670,1106 - GROCERY (EXC CONVENIENCE) STORES
POINT (-89.959536188257 30.02103640939),380877,"AMA DISCOUNT, INC",CHEF DISCOUNT MARKET,10833 CHEF MENTEUR HWY,,NEW ORLEANS,LA,70127,504-329-8179,1106 - GROCERY (EXC CONVENIENCE) STORES
POINT (-90.038217741155 29.977338645439),381051,POPPA ENTERPRISES,POPPA'S SEAFOOD & DELI,3311 N GALVEZ ST,,NEW ORLEANS,LA,70117,504-947-3373,1104 - FISH & SEAFOOD MARKETS
POINT (-90.078678605529 29.942374717289),380959,"JACK & JAKES PUBLIC MARKET,LLC",JACK & JAKES,1307 ORETHA CASTLE HALEY BLVD,200,NEW ORLEANS,LA,70113,,1106 - GROCERY (EXC CONVENIENCE) STORES
POINT (-90.076989294557 29.951922709288),381139,TOMMY'S SEAFOOD INC,TOMMY'S BLUE CRAB,2103 PARIS RD,1452,NEW ORLEANS,LA,70129,,0135 - FISH & SEAFOOD WHLSRS
POINT (-90.042394239961 29.945398866128),381026,LIEM & TEIN PARTNERSHIP,NEWTON DISCOUNT MARKET,1424 NEWTON ST,,NEW ORLEANS,LA,70114,504-368-3692,1101 - CONVENIENCE STORES
POINT (-90.018529134678 29.92403131143),380847,"EXXON GENERAL DEGAULLE, LLC",BROTHER FOOD MART NO. 136,3622 GENERAL DE GAULLE DR,,NEW ORLEANS,LA,70114,504-366-2413,1101 - CONVENIENCE STORES
POINT (-90.059022777866 29.973014039773),381120,SUNSHINE FOOD MARKET INC,SUNSHINE FOOD MARKET,2020 N CLAIBORNE AVE,,NEW ORLEANS,LA,70116,504-304-6135,1106 - GROCERY (EXC CONVENIENCE) STORES
POINT (-90.040495089397 29.945326564599),381025,"KHP,LLC",NEWTON CORNER MART,1600 NEWTON ST,,NEW ORLEANS,LA,70114,,1106 - GROCERY (EXC CONVENIENCE) STORES
POINT (-90.076989294557 29.951922709288),381105,SHAWNTELL MANUEL,SOUL FOOD CUSINE EXPRESS,3146 GEN MEYER AVE,,NEW ORLEANS,LA,70114,,1106 - GROCERY (EXC CONVENIENCE) STORES
POINT (-90.101526277026 29.951966448953),381081,RUSTYS POBOY SEAFOOD INC,RUSTY'S POBOY SEAFOOD,4122 WASHINGTON AVE,,NEW ORLEANS,LA,70125,504-821-1771,1101 - CONVENIENCE STORES
POINT (-90.118667263273 29.941047550523),381143,SODEXO MANAGEMENT INC,TULANE CATERING,31 MCALISTER DR,,NEW ORLEANS,LA,70118,504-865-5254,1101 - CONVENIENCE STORES
POINT (-90.064759399398 29.941956775949),381015,"N'AWLINS GOODS, LLC",N'AWLINS GOODS,901 CONVENTION CENTER BLVD,STE 114,NEW ORLEANS,LA,70130,,1101 - CONVENIENCE STORES
POINT (-90.065095800655 29.95085973894),381039,OMNI LLC,OMNI LLC,333 CANAL ST,STE 333,NEW ORLEANS,LA,70130,814-521-9012,1101 - CONVENIENCE STORES
POINT (-90.076989294557 29.951922709288),381114,LUCERO MORAN ENTERPRISES LLC,ST. LOUIS MARKET,730 ST. LOUIS STREET,,NEW ORLEANS,LA,70130,504-451-6811,1106 - GROCERY (EXC CONVENIENCE) STORES
POINT (-90.033864631369 29.964517456049),381142,ROBERT H LUTZ,TRY ME COFFEE MILLS,1014 FRANCE ST,,NEW ORLEANS,LA,70117-5331,504-945-4314,"0138 - GROCERY & RELATED PRDCTS WHLSRS, OTH"
POINT (-90.07338263653 29.925467088509),381125,"JOE KIND SUPERMARKET, INC",T & T SEAFOOD,548 JACKSON AVE,,NEW ORLEANS,LA,70130,,1104 - FISH & SEAFOOD MARKETS
POINT (-90.054206857653 30.028183997923),381078,"ROUSE'S ENTERPRISES, LLC",ROUSES MARKET #35(GENTILLY),6600 FRANKLIN AVE,,NEW ORLEANS,LA,70122,,1106 - GROCERY (EXC CONVENIENCE) STORES
POINT (-90.07722986226 29.96725599215),380866,CAJUN ORLEANS LLC,CAJUN WILLS,2127 ORLEANS AVE,,NEW ORLEANS,LA,70116,504-821-6386,1106 - GROCERY (EXC CONVENIENCE) STORES
POINT (-90.094224292105 29.933558016896),380986,LOUISIANA MEAT LLC,LOUISIANA MEAT MARKET,2136 LOUISIANA AVE,,NEW ORLEANS,LA,70115,504-259-3651,1101 - CONVENIENCE STORES
POINT (-90.079494249603 29.935275926109),381065,"THUMBS UP RACE SEVEN, LLC.",RED ZONE I,2025 ST CHARLES AVE,,NEW ORLEANS,LA,70130,,1101 - CONVENIENCE STORES
POINT (-90.076989294557 29.951922709288),381024,"NEW ORLEANS FOOD CO-OP,INC",NEW ORLEANS FOOD CO-OP,2372 ST. CLAUDE AVENUE,STE. 110,NEW ORLEANS,LA,70117,504-324-6849,"0138 - GROCERY & RELATED PRDCTS WHLSRS, OTH"
POINT (-90.117321255614 30.005890747715),380978,"TWO-O-SEVEN, LLC",LAKEVIEW MINI MART,207 W HARRISON AVE,,NEW ORLEANS,LA,70124,504-872-0522,1101 - CONVENIENCE STORES
POINT (-90.096821081852 29.976576256069),381076,"ROUSE'S ENTERPRISES, LLC",ROUSES MARKET #29(CARROLLTON),400 N CARROLLTON AVE,,NEW ORLEANS,LA,70119,,1106 - GROCERY (EXC CONVENIENCE) STORES
POINT (-90.09943177962 29.95008058892),380814,"ZEYNA, LLC",AEREN'S SUPERMARKET,3911 WASHINGTON AVE,,NEW ORLEANS,LA,70125,504-302-9875,1106 - GROCERY (EXC CONVENIENCE) STORES
POINT (-90.087055167956 29.949597786144),380872,CAPT JOHNNY SMITH WHLS LLC,CART JOHNNY SMITH WHLS LLC,2920 EARHART BLVD,,NEW ORLEANS,LA,70125,504-524-4196,0135 - FISH & SEAFOOD WHLSRS
POINT (-90.08133661069 29.972096466228),380994,FRANK'S DISCOUNT LLC,MAGNOLIA MEAT MARKET,900 N BROAD ST,,NEW ORLEANS,LA,70119,504-827-1281,1106 - GROCERY (EXC CONVENIENCE) STORES
POINT (-90.067265019659 29.958663918945),381140,"BAHU, INC",TOULOUSE HOUSE,605 DAUPHINE ST,,NEW ORLEANS,LA,70112,504-529-4270,1101 - CONVENIENCE STORES
POINT (-90.060515488174 29.971478210219),380809,"7TH WARD FOOD MART,LLC",7TH WARD FOOD MART,2101 PAUGER ST,,NEW ORLEANS,LA,70116,,1101 - CONVENIENCE STORES
POINT (-90.072153981133 29.954910959124),380832,"MAGNOLIA ENTERPRISES, INC.",BAYOU GIFTS,1000 CANAL ST,,NEW ORLEANS,LA,70130,,"1110 - BEER, WINE & LIQUOR STORES"
POINT (-90.076989294557 29.951922709288),380931,SIX BROTHERS LLC,FRANCE MEAT MARKET,1339 FRANCE ST,,NEW ORLEANS,LA,70117,504-949-2407,1103 - MEAT MARKETS
POINT (-90.092497049691 29.917981261005),381117,STOCK POT LLC (THE),STOCK POT LLC (THE),3701 TCHOUPITOULAS ST,STE D,NEW ORLEANS,LA,70115-1339,504-897-9192,"0138 - GROCERY & RELATED PRDCTS WHLSRS, OTH"
POINT (-90.068459565509 29.952451187846),380908,DEEP SOUTH GROCERY CO   INC,DEEP SOUTH TRADING CO,600 CANAL ST,,NEW ORLEANS,LA,70130,504-586-8753,1101 - CONVENIENCE STORES
POINT (-89.984049667321 29.923220297258),380834,"BENN, KERMIT",BENNS GROCERY,6445 ISADORE ST,,NEW ORLEANS,LA,70131,504-394-5800,1101 - CONVENIENCE STORES
POINT (-90.061834922165 30.023425087106),380918,"M & S  OIL SERVICES, L.L.C.",ELYSIAN FIELDS SHELL,6300 ELYSIAN FIELDS AVE,,NEW ORLEANS,LA,70122,504-884-8766,1101 - CONVENIENCE STORES
POINT (-90.008742662016 29.964337231061),380996,ALZARA INC,MAGNOLIA SUPERMARKET,6100 N CLAIBORNE AVE,,NEW ORLEANS,LA,70117,504-628-6781,1101 - CONVENIENCE STORES
POINT (-90.096278156115 29.96418221119),380967,"K & T FOOD STORE, INC",K & T FOOD STORE,3204 TULANE AVE,,NEW ORLEANS,LA,70119,,1101 - CONVENIENCE STORES
POINT (-90.090938483475 29.928187510743),381134,"THE FRESH MARKET, INC",THE FRESH MARKET,3338 ST CHARLES AVE,,NEW ORLEANS,LA,70118,336-217-4077,"1111 - SPECIALTY FOOD STORES, ALL OTHER"
POINT (-90.076989294557 29.951922709288),381023,NEW ORLEANS FISH HOUSE L,NEW ORLEANS FISH HOUSE LLC,P.O BOX 4125,,NEW ORLEANS,LA,70176,504-821-9700,0135 - FISH & SEAFOOD WHLSRS
POINT (-90.017980287212 30.011817840163),381082,S & I FOOD STORE INC,S & I FOOD STORE,4350 STEMWAY DR,,NEW ORLEANS,LA,70126,,1101 - CONVENIENCE STORES
POINT (-90.076989294557 29.951922709288),380971,"MLT ENTERPRISES,INC",KING SUPERMARKET,1135 SAINT BERNARD AVE,,NEW ORLEANS,LA,70116,504-782-7639,1106 - GROCERY (EXC CONVENIENCE) STORES
POINT (-90.079161074226 29.944684686488),380915,"2000 EARHART BOULEVARD,LLC",EARHART 169,2000 EARHART BLVD,,NEW ORLEANS,LA,70113,,1101 - CONVENIENCE STORES
POINT (-90.06746963407 29.950841421164),381059,R & E MAGAZINE,R & E MAGAZINE,212 MAGAZINE ST,A,NEW ORLEANS,LA,70130,,"1169 - MISC STORE RTLERS (EX TOBAC), ALL OTH"
POINT (-90.073245971962 29.964687933828),380855,FATHER 4 SONS LLC,BROWN DERBY,755 N CLAIBORNE AVE,,NEW ORLEANS,LA,70116,,1106 - GROCERY (EXC CONVENIENCE) STORES
POINT (-90.076989294557 29.951922709288),381123,"BEVO VINO, LLC",SWIRL,3141 3143 PONCE DE LEON ST,,NEW ORLEANS,LA,70119,504-304-0635,"1110 - BEER, WINE & LIQUOR STORES"
POINT (-89.97762350639 30.03850855821),380864,"CAJUN SEAFOOD #4,LLC",CAJUN SEAFOOD #4,7020 READ BLVD,,NEW ORLEANS,LA,70127,504-241-1396,1106 - GROCERY (EXC CONVENIENCE) STORES
POINT (-90.123197589996 29.962114347706),381005,"MCKENZIE FOOD STORE,INC",MCKENZIE FOOD STORE,8638 BELFAST ST,,NEW ORLEANS,LA,70118,504-866-4970,1106 - GROCERY (EXC CONVENIENCE) STORES
POINT (-90.020639725897 29.925316567452),381097,SEAFOOD ZONE LLC,SEAFOOD ZONE,3600 MACARTHUR BLVD,STE:M,NEW ORLEANS,LA,70114,504-367-0550,1106 - GROCERY (EXC CONVENIENCE) STORES
POINT (-89.927778207906 30.032576046553),381004,VINA FOOD INC.,MATT'S GROCERY 2,4655 MICHOUD BLVD,,NEW ORLEANS,LA,70129,,1106 - GROCERY (EXC CONVENIENCE) STORES
POINT (-90.076989294557 29.951922709288),381160,"WE SERV,LLC",WE SERV FOOD STORE,3319 N N GALVEZ ST,,NEW ORLEANS,LA,70122,,1106 - GROCERY (EXC CONVENIENCE) STORES
POINT (-90.079356799319 29.968677610168),380860,ABUALI FADI A,BUSY BEE FOOD STORE,2401 ORLEANS AVE,A,NEW ORLEANS,LA,70119-5027,504-821-5586,1101 - CONVENIENCE STORES
POINT (-89.959491208141 30.045109414722),381036,NS DISCOUNT EXPRESS LLC,NS DISCOUNT EXPRESS,6041 BULLARD AVE,,NEW ORLEANS,LA,70128,,1101 - CONVENIENCE STORES
POINT (-89.990869842431 30.014069683334),381085,HALLA GROUP LLC.,SAM'S FOOD & LIQUOR,8201 CHEF MENTEUR HWY,,NEW ORLEANS,LA,70126,504-610-7012,1106 - GROCERY (EXC CONVENIENCE) STORES
POINT (-90.117647833343 29.920834215075),381163,"WHOLE FOOD COMPANY, INC",WHOLE FOODS MARKET,5600 MAGAZINE ST,,NEW ORLEANS,LA,70115,000-899-9119,1106 - GROCERY (EXC CONVENIENCE) STORES
POINT (-90.066808496323 29.929229796583),380825,"AZ EXPRESS,LLC",AZ EXPRESS,1667 TCHOUPITOULAS ST,,NEW ORLEANS,LA,70130,,1101 - CONVENIENCE STORES
POINT (-90.019215416948 29.961809584525),381112,"RAED 5330,LLC",ST CLAUDE FRESH MARKET,5330 ST CLAUDE AVE,UNIT A,NEW ORLEANS,LA,70117,,1106 - GROCERY (EXC CONVENIENCE) STORES
POINT (-90.068562777066 29.953152671905),380897,MAGNOLIA ENTERPRISES INC,CREOLE SUPERSTORE,623 CANAL ST,,NEW ORLEANS,LA,70130,504-586-0703,1101 - CONVENIENCE STORES
POINT (-90.070761844304 29.952739693869),380851,"148 CARONDELET STREET,LLC",BROTHERS FOOD MART 109,148 CARONDELET ST,,NEW ORLEANS,LA,70130,,1106 - GROCERY (EXC CONVENIENCE) STORES
POINT (-90.086909092936 29.957317578609),380819,"ALLIANCE SUPPLY MANGEMENT, LTD","ALLIANCE SUPPLY MANGEMENT, LTD",555 S GALVEZ ST,,NEW ORLEANS,LA,70119,713-335-2500,"0138 - GROCERY & RELATED PRDCTS WHLSRS, OTH"
POINT (-90.019098048155 29.92525007302),381089,"MORAN FOODS, LLC",SAVE A LOT #378-5434,3640 MACARTHUR BLVD,,NEW ORLEANS,LA,70114,504-362-5036,1106 - GROCERY (EXC CONVENIENCE) STORES
POINT (-90.124214245798 29.967202643521),380895,JUDEH SUHAD,COYE FOOD STORE,9103 FIG ST,,NEW ORLEANS,LA,70118,504-828-7921,1101 - CONVENIENCE STORES
POINT (-90.110647659927 29.967936655128),380893,COSTCO WHOLESALE CORPORATION,COSTCO WHOLESALE 1147,3900 DUBLIN ST,,NEW ORLEANS,LA,70118,425-313-8100,"1111 - SPECIALTY FOOD STORES, ALL OTHER"
POINT (-90.104075543615 29.968764171495),381087,"SALOMON, ELGIN",SANDWICH SHOP,645 S PIERCE ST,,NEW ORLEANS,LA,70119,504-482-3295,1101 - CONVENIENCE STORES
